{"type": "FeatureCollection", "features": [ {"type": "Feature", "properties": {"norad_id": 66584, "name": "STARLINK-35939", "group": "last-30-days", "lat": -11.158012399674694, "lon": 39.958228059423135, "alt_km": 401.1106109290049, "timestamp": "2025-12-24T11:32:58.716776+00:00", "meta": {"OBJECT_NAME": "STARLINK-35939", "OBJECT_ID": "2025-268AD", "EPOCH": "2025-12-24T04:00:01.998720", "MEAN_MOTION": 15.56841194, "ECCENTRICITY": 0.0001245, "INCLINATION": 43.0004, "RA_OF_ASC_NODE": 54.0343, "ARG_OF_PERICENTER": 269.6341, "MEAN_ANOMALY": 109.5848, "EPHEMERIS_TYPE": 0, "CLASSIFICATION_TYPE": "U", "NORAD_CAT_ID": 66584, "ELEMENT_SET_NO": 999, "REV_AT_EPOCH": 607, "BSTAR": -0.026032, "MEAN_MOTION_DOT": -0.01715873, "MEAN_MOTION_DDOT": 0}, "tle": {"line1": "1 66584U 25268AD  25358.16668980 -.01715873  00000+0 -26032-1 0  9996", "line2": "2 66584  43.0004  54.0343 0001245 269.6341 109.5848 15.56841194  6076"}}, "geometry": {"type": "Point", "coordinates": [39.958228059423135, -11.158012399674694]}}, {"type": "Feature", "properties": {"norad_id": 66585, "name": "STARLINK-35963", "group": "last-30-days", "lat": -42.908524834106416, "lon": -41.696131918133446, "alt_km": 441.4969997360895, "timestamp": "2025-12-24T11:32:58.716788+00:00", "meta": {"OBJECT_NAME": "STARLINK-35963", "OBJECT_ID": "2025-268AE", "EPOCH": "2025-12-24T04:00:01.998720", "MEAN_MOTION": 15.43807603, "ECCENTRICITY": 0.0001309, "INCLINATION": 43.0007, "RA_OF_ASC_NODE": 54.1856, "ARG_OF_PERICENTER": 257.819, "MEAN_ANOMALY": 59.7742, "EPHEMERIS_TYPE": 0, "CLASSIFICATION_TYPE": "U", "NORAD_CAT_ID": 66585, "ELEMENT_SET_NO": 999, "REV_AT_EPOCH": 607, "BSTAR": -0.049698, "MEAN_MOTION_DOT": -0.02047915, "MEAN_MOTION_DDOT": 0}, "tle": {"line1": "1 66585U 25268AE  25358.16668980 -.02047915  00000+0 -49698-1 0  9996", "line2": "2 66585  43.0007  54.1856 0001309 257.8190  59.7742 15.43807603  6074"}}, "geometry": {"type": "Point", "coordinates": [-41.696131918133446, -42.908524834106416]}}, {"type": "Feature", "properties": {"norad_id": 66586, "name": "TJS-21", "group": "last-30-days", "lat": 60.58098843306488, "lon": -82.24257698151614, "alt_km": 35940.323873077265, "timestamp": "2025-12-24T11:32:58.716802+00:00", "meta": {"OBJECT_NAME": "TJS-21", "OBJECT_ID": "2025-269A", "EPOCH": "2025-12-18T16:58:10.473888", "MEAN_MOTION": 2.00580748, "ECCENTRICITY": 0.6806869, "INCLINATION": 63.2733, "RA_OF_ASC_NODE": 161.7218, "ARG_OF_PERICENTER": 269.7428, "MEAN_ANOMALY": 18.6663, "EPHEMERIS_TYPE": 0, "CLASSIFICATION_TYPE": "U", "NORAD_CAT_ID": 66586, "ELEMENT_SET_NO": 999, "REV_AT_EPOCH": 55, "BSTAR": -0.059507049, "MEAN_MOTION_DOT": 1.084e-05, "MEAN_MOTION_DDOT": 0}, "tle": {"line1": "1 66586U 25269A   25352.70706567  .00001084  00000+0 -59507-1 0  9990", "line2": "2 66586  63.2733 161.7218 6806869 269.7428  18.6663  2.00580748   558"}}, "geometry": {"type": "Point", "coordinates": [-82.24257698151614, 60.58098843306488]}}, {"type": "Feature", "properties": {"norad_id": 66588, "name": "STARLINK-36076", "group": "last-30-days", "lat": 33.42195631427233, "lon": 170.2150363626708, "alt_km": 438.83914267141427, "timestamp": "2025-12-24T11:32:58.716818+00:00", "meta": {"OBJECT_NAME": "STARLINK-36076", "OBJECT_ID": "2025-270A", "EPOCH": "2025-12-24T01:58:54.245856", "MEAN_MOTION": 15.40714399, "ECCENTRICITY": 7.1e-05, "INCLINATION": 42.9988, "RA_OF_ASC_NODE": 127.4229, "ARG_OF_PERICENTER": 291.7125, "MEAN_ANOMALY": 68.3656, "EPHEMERIS_TYPE": 0, "CLASSIFICATION_TYPE": "U", "NORAD_CAT_ID": 66588, "ELEMENT_SET_NO": 999, "REV_AT_EPOCH": 609, "BSTAR": 0.00077439, "MEAN_MOTION_DOT": 0.00032196, "MEAN_MOTION_DDOT": 0}, "tle": {"line1": "1 66588U 25270A   25358.08257229  .00032196  00000+0  77439-3 0  9990", "line2": "2 66588  42.9988 127.4229 0000710 291.7125  68.3656 15.40714399  6099"}}, "geometry": {"type": "Point", "coordinates": [170.2150363626708, 33.42195631427233]}}, {"type": "Feature", "properties": {"norad_id": 66589, "name": "STARLINK-35447", "group": "last-30-days", "lat": 17.65598824491713, "lon": -75.08706463471367, "alt_km": 441.3561726838643, "timestamp": "2025-12-24T11:32:58.716828+00:00", "meta": {"OBJECT_NAME": "STARLINK-35447", "OBJECT_ID": "2025-270B", "EPOCH": "2025-12-24T01:33:05.346144", "MEAN_MOTION": 15.40727531, "ECCENTRICITY": 0.000127, "INCLINATION": 43.0005, "RA_OF_ASC_NODE": 127.2866, "ARG_OF_PERICENTER": 264.1464, "MEAN_ANOMALY": 95.9248, "EPHEMERIS_TYPE": 0, "CLASSIFICATION_TYPE": "U", "NORAD_CAT_ID": 66589, "ELEMENT_SET_NO": 999, "REV_AT_EPOCH": 620, "BSTAR": 0.001534, "MEAN_MOTION_DOT": 0.00064378, "MEAN_MOTION_DDOT": 0}, "tle": {"line1": "1 66589U 25270B   25358.06464521  .00064378  00000+0  15340-2 0  9993", "line2": "2 66589  43.0005 127.2866 0001270 264.1464  95.9248 15.40727531  6207"}}, "geometry": {"type": "Point", "coordinates": [-75.08706463471367, 17.65598824491713]}}, {"type": "Feature", "properties": {"norad_id": 66590, "name": "STARLINK-35429", "group": "last-30-days", "lat": -36.533205859961306, "lon": -2.675685472706861, "alt_km": 445.45042206653034, "timestamp": "2025-12-24T11:32:58.716839+00:00", "meta": {"OBJECT_NAME": "STARLINK-35429", "OBJECT_ID": "2025-270C", "EPOCH": "2025-12-23T18:57:05.300352", "MEAN_MOTION": 15.40759913, "ECCENTRICITY": 0.00021935, "INCLINATION": 43.0027, "RA_OF_ASC_NODE": 128.6594, "ARG_OF_PERICENTER": 269.5993, "MEAN_ANOMALY": 90.4612, "EPHEMERIS_TYPE": 0, "CLASSIFICATION_TYPE": "U", "NORAD_CAT_ID": 66590, "ELEMENT_SET_NO": 999, "REV_AT_EPOCH": 616, "BSTAR": 0.0014864851, "MEAN_MOTION_DOT": 0.00062426, "MEAN_MOTION_DDOT": 0}, "tle": {"line1": "1 66590U 25270C   25357.78964468  .00062426  00000+0  14865-2 0  9991", "line2": "2 66590  43.0027 128.6594 0002193 269.5993  90.4612 15.40759913  6166"}}, "geometry": {"type": "Point", "coordinates": [-2.675685472706861, -36.533205859961306]}}, {"type": "Feature", "properties": {"norad_id": 66591, "name": "STARLINK-36058", "group": "last-30-days", "lat": -21.472182216885578, "lon": 99.49366224907259, "alt_km": 445.46878805905817, "timestamp": "2025-12-24T11:32:58.716850+00:00", "meta": {"OBJECT_NAME": "STARLINK-36058", "OBJECT_ID": "2025-270D", "EPOCH": "2025-12-24T00:00:00.998784", "MEAN_MOTION": 15.40684723, "ECCENTRICITY": 0.0001443, "INCLINATION": 43.0007, "RA_OF_ASC_NODE": 127.2349, "ARG_OF_PERICENTER": 277.3057, "MEAN_ANOMALY": 258.0125, "EPHEMERIS_TYPE": 0, "CLASSIFICATION_TYPE": "U", "NORAD_CAT_ID": 66591, "ELEMENT_SET_NO": 999, "REV_AT_EPOCH": 599, "BSTAR": 0.00024874, "MEAN_MOTION_DOT": 0.00010095, "MEAN_MOTION_DDOT": 0}, "tle": {"line1": "1 66591U 25270D   25358.00001156  .00010095  00000+0  24874-3 0  9991", "line2": "2 66591  43.0007 127.2349 0001443 277.3057 258.0125 15.40684723  5990"}}, "geometry": {"type": "Point", "coordinates": [99.49366224907259, -21.472182216885578]}}, {"type": "Feature", "properties": {"norad_id": 66592, "name": "STARLINK-36066", "group": "last-30-days", "lat": 41.466358400928954, "lon": -126.48803275733859, "alt_km": 438.2598561167879, "timestamp": "2025-12-24T11:32:58.716860+00:00", "meta": {"OBJECT_NAME": "STARLINK-36066", "OBJECT_ID": "2025-270E", "EPOCH": "2025-12-24T01:45:59.626656", "MEAN_MOTION": 15.4071983, "ECCENTRICITY": 0.0001494, "INCLINATION": 43.0005, "RA_OF_ASC_NODE": 127.3548, "ARG_OF_PERICENTER": 281.5377, "MEAN_ANOMALY": 78.5312, "EPHEMERIS_TYPE": 0, "CLASSIFICATION_TYPE": "U", "NORAD_CAT_ID": 66592, "ELEMENT_SET_NO": 999, "REV_AT_EPOCH": 599, "BSTAR": 0.0014926, "MEAN_MOTION_DOT": 0.00062601, "MEAN_MOTION_DDOT": 0}, "tle": {"line1": "1 66592U 25270E   25358.07360679  .00062601  00000+0  14926-2 0  9993", "line2": "2 66592  43.0005 127.3548 0001494 281.5377  78.5312 15.40719830  5990"}}, "geometry": {"type": "Point", "coordinates": [-126.48803275733859, 41.466358400928954]}}, {"type": "Feature", "properties": {"norad_id": 66593, "name": "STARLINK-36031", "group": "last-30-days", "lat": -7.4208135485541735, "lon": -47.173471033116996, "alt_km": 444.5856181305926, "timestamp": "2025-12-24T11:32:58.716873+00:00", "meta": {"OBJECT_NAME": "STARLINK-36031", "OBJECT_ID": "2025-270F", "EPOCH": "2025-12-24T01:23:24.929088", "MEAN_MOTION": 15.4074384, "ECCENTRICITY": 8.63e-05, "INCLINATION": 43.0006, "RA_OF_ASC_NODE": 127.2322, "ARG_OF_PERICENTER": 287.0381, "MEAN_ANOMALY": 73.038, "EPHEMERIS_TYPE": 0, "CLASSIFICATION_TYPE": "U", "NORAD_CAT_ID": 66593, "ELEMENT_SET_NO": 999, "REV_AT_EPOCH": 609, "BSTAR": 0.001005, "MEAN_MOTION_DOT": 0.0004197, "MEAN_MOTION_DDOT": 0}, "tle": {"line1": "1 66593U 25270F   25358.05792742  .00041970  00000+0  10050-2 0  9992", "line2": "2 66593  43.0006 127.2322 0000863 287.0381  73.0380 15.40743840  6091"}}, "geometry": {"type": "Point", "coordinates": [-47.173471033116996, -7.4208135485541735]}}, {"type": "Feature", "properties": {"norad_id": 66594, "name": "STARLINK-36032", "group": "last-30-days", "lat": -39.72143460567029, "lon": 61.49307307653429, "alt_km": 444.86799523118225, "timestamp": "2025-12-24T11:32:58.716884+00:00", "meta": {"OBJECT_NAME": "STARLINK-36032", "OBJECT_ID": "2025-270G", "EPOCH": "2025-12-23T15:37:29.022240", "MEAN_MOTION": 15.40717156, "ECCENTRICITY": 0.00031713, "INCLINATION": 43.0045, "RA_OF_ASC_NODE": 129.3366, "ARG_OF_PERICENTER": 281.74, "MEAN_ANOMALY": 78.3101, "EPHEMERIS_TYPE": 0, "CLASSIFICATION_TYPE": "U", "NORAD_CAT_ID": 66594, "ELEMENT_SET_NO": 999, "REV_AT_EPOCH": 584, "BSTAR": 0.0010129221, "MEAN_MOTION_DOT": 0.00042272, "MEAN_MOTION_DDOT": 0}, "tle": {"line1": "1 66594U 25270G   25357.65103035  .00042272  00000+0  10129-2 0  9992", "line2": "2 66594  43.0045 129.3366 0003171 281.7400  78.3101 15.40717156  5846"}}, "geometry": {"type": "Point", "coordinates": [61.49307307653429, -39.72143460567029]}}]}